ION SCV-017             
1 63230U 25052W   26068.71648816  .00006457  00000+0  24539-3 0  9998
2 63230  97.4016 324.7516 0023746  44.9875 315.3282 15.26881798 54851
STARLINK-36188          
1 67122U 25299W   26068.30350670  .00071457  00000+0  25103-2 0  9997
2 67122  43.0019 171.4824 0001202 159.1817 200.9084 15.28492358 13050
